start=new Date('2023-05-02T00:00:00.000Z').valueOf();
sats=[{"ECCENTRICITY":"0.00014780","GP_ID":"231051529","CENTER_NAME":"EARTH","CLASSIFICATION_TYPE":"U","APOAPSIS":"548.072","EPOCH":"2023-05-01T15:51:58.709952","PERIAPSIS":"546.025","OBJECT_TYPE":"PAYLOAD","MEAN_ANOMALY":"252.2915","NORAD_CAT_ID":"47741","MEAN_MOTION_DOT":"0.00019657","FILE":"3898518","SEMIMAJOR_AXIS":"6925.184","OBJECT_ID":"2021-017V","INCLINATION":"53.0546","EPHEMERIS_TYPE":"0","RA_OF_ASC_NODE":"213.9547","PERIOD":"95.589","TLE_LINE1":"1 47741U 21017V   23121.66109618  .00019657  00000-0  13329-2 0  9998","OBJECT_NAME":"STARLINK-2154","MEAN_ELEMENT_THEORY":"SGP4","SITE":"AFETR","LAUNCH_DATE":"2021-03-04","TIME_SYSTEM":"UTC","ELEMENT_SET_NO":"999","TLE_LINE2":"2 47741  53.0546 213.9547 0001478 107.8235 252.2915 15.06453843120520","BSTAR":"0.00133290000000","DECAY_DATE":null,"RCS_SIZE":"LARGE","ARG_OF_PERICENTER":"107.8235","REV_AT_EPOCH":"12052","COUNTRY_CODE":"US","MEAN_MOTION_DDOT":"0.0000000000000","MEAN_MOTION":"15.06453843","REF_FRAME":"TEME"},{"REV_AT_EPOCH":"12069","BSTAR":"0.00124420000000","DECAY_DATE":null,"RCS_SIZE":"LARGE","ARG_OF_PERICENTER":"72.8333","REF_FRAME":"TEME","MEAN_MOTION":"15.06443162","MEAN_MOTION_DDOT":"0.0000000000000","COUNTRY_CODE":"US","MEAN_ELEMENT_THEORY":"SGP4","OBJECT_NAME":"STARLINK-2156","TLE_LINE2":"2 47742  53.0527 204.4939 0001513  72.8333 287.2822 15.06443162120696","ELEMENT_SET_NO":"999","TIME_SYSTEM":"UTC","SITE":"AFETR","LAUNCH_DATE":"2021-03-04","EPHEMERIS_TYPE":"0","INCLINATION":"53.0527","FILE":"3898258","MEAN_MOTION_DOT":"0.00018321","SEMIMAJOR_AXIS":"6925.216","OBJECT_ID":"2021-017W","TLE_LINE1":"1 47742U 21017W   23121.54036807  .00018321  00000-0  12442-2 0  9997","PERIOD":"95.589","RA_OF_ASC_NODE":"204.4939","CLASSIFICATION_TYPE":"U","CENTER_NAME":"EARTH","GP_ID":"231018718","ECCENTRICITY":"0.00015130","NORAD_CAT_ID":"47742","OBJECT_TYPE":"PAYLOAD","MEAN_ANOMALY":"287.2822","PERIAPSIS":"546.033","EPOCH":"2023-05-01T12:58:07.801248","APOAPSIS":"548.129"},{"ELEMENT_SET_NO":"999","TLE_LINE2":"2 47743  53.0534 204.0866 0001539  76.6697 283.4464 15.06423609120686","LAUNCH_DATE":"2021-03-04","SITE":"AFETR","TIME_SYSTEM":"UTC","MEAN_ELEMENT_THEORY":"SGP4","OBJECT_NAME":"STARLINK-2157","REF_FRAME":"TEME","MEAN_MOTION":"15.06423609","COUNTRY_CODE":"US","MEAN_MOTION_DDOT":"0.0000000000000","REV_AT_EPOCH":"12068","RCS_SIZE":"LARGE","DECAY_DATE":null,"ARG_OF_PERICENTER":"76.6697","BSTAR":"0.00132520000000","MEAN_ANOMALY":"283.4464","OBJECT_TYPE":"PAYLOAD","NORAD_CAT_ID":"47743","PERIAPSIS":"546.075","APOAPSIS":"548.207","EPOCH":"2023-05-01T15:10:50.789856","CLASSIFICATION_TYPE":"U","GP_ID":"231052522","ECCENTRICITY":"0.00015390","CENTER_NAME":"EARTH","TLE_LINE1":"1 47743U 21017X   23121.63253229  .00019525  00000-0  13252-2 0  9994","RA_OF_ASC_NODE":"204.0866","PERIOD":"95.591","EPHEMERIS_TYPE":"0","FILE":"3898518","MEAN_MOTION_DOT":"0.00019525","SEMIMAJOR_AXIS":"6925.276","OBJECT_ID":"2021-017X","INCLINATION":"53.0534"},{"OBJECT_NAME":"STARLINK-2158","MEAN_ELEMENT_THEORY":"SGP4","TIME_SYSTEM":"UTC","SITE":"AFETR","LAUNCH_DATE":"2021-03-04","TLE_LINE2":"2 47744  53.0535 203.8588 0001352 102.2204 257.8937 15.06419367120719","ELEMENT_SET_NO":"999","DECAY_DATE":null,"RCS_SIZE":"LARGE","BSTAR":"0.00093715000000","ARG_OF_PERICENTER":"102.2204","REV_AT_EPOCH":"12071","MEAN_MOTION_DDOT":"0.0000000000000","COUNTRY_CODE":"US","MEAN_MOTION":"15.06419367","REF_FRAME":"TEME","CENTER_NAME":"EARTH","ECCENTRICITY":"0.00013520","GP_ID":"231051279","CLASSIFICATION_TYPE":"U","EPOCH":"2023-05-01T16:07:51.979296","APOAPSIS":"548.091","PERIAPSIS":"546.218","OBJECT_TYPE":"PAYLOAD","MEAN_ANOMALY":"257.8937","NORAD_CAT_ID":"47744","INCLINATION":"53.0535","FILE":"3898518","SEMIMAJOR_AXIS":"6925.289","OBJECT_ID":"2021-017Y","MEAN_MOTION_DOT":"0.00013712","EPHEMERIS_TYPE":"0","PERIOD":"95.591","RA_OF_ASC_NODE":"203.8588","TLE_LINE1":"1 47744U 21017Y   23121.67212939  .00013712  00000-0  93715-3 0  9997"},{"EPHEMERIS_TYPE":"0","MEAN_MOTION_DOT":"0.00021400","FILE":"3898518","SEMIMAJOR_AXIS":"6925.311","OBJECT_ID":"2021-017Z","INCLINATION":"53.0533","TLE_LINE1":"1 47745U 21017Z   23121.63899083  .00021400  00000-0  14507-2 0  9999","RA_OF_ASC_NODE":"214.0521","PERIOD":"95.591","CLASSIFICATION_TYPE":"U","GP_ID":"231052030","ECCENTRICITY":"0.00014920","CENTER_NAME":"EARTH","NORAD_CAT_ID":"47745","OBJECT_TYPE":"PAYLOAD","MEAN_ANOMALY":"274.2483","PERIAPSIS":"546.142","APOAPSIS":"548.209","EPOCH":"2023-05-01T15:20:08.807712","REV_AT_EPOCH":"12051","BSTAR":"0.00145070000000","DECAY_DATE":null,"RCS_SIZE":"LARGE","ARG_OF_PERICENTER":"85.8677","REF_FRAME":"TEME","MEAN_MOTION":"15.06412380","COUNTRY_CODE":"US","MEAN_MOTION_DDOT":"0.0000000000000","MEAN_ELEMENT_THEORY":"SGP4","OBJECT_NAME":"STARLINK-2159","ELEMENT_SET_NO":"999","TLE_LINE2":"2 47745  53.0533 214.0521 0001492  85.8677 274.2483 15.06412380120519","LAUNCH_DATE":"2021-03-04","SITE":"AFETR","TIME_SYSTEM":"UTC"},{"TLE_LINE2":"2 47746  53.0525 214.3821 0001170  96.4239 263.6884 15.06397953119874","ELEMENT_SET_NO":"999","TIME_SYSTEM":"UTC","LAUNCH_DATE":"2021-03-04","SITE":"AFETR","MEAN_ELEMENT_THEORY":"SGP4","OBJECT_NAME":"STARLINK-2160","REF_FRAME":"TEME","MEAN_MOTION":"15.06397953","MEAN_MOTION_DDOT":"0.0000000000000","COUNTRY_CODE":"US","REV_AT_EPOCH":"11987","DECAY_DATE":null,"RCS_SIZE":"LARGE","ARG_OF_PERICENTER":"96.4239","BSTAR":"0.00142150000000","OBJECT_TYPE":"PAYLOAD","NORAD_CAT_ID":"47746","MEAN_ANOMALY":"263.6884","PERIAPSIS":"546.410","EPOCH":"2023-05-01T13:33:58.317120","APOAPSIS":"548.030","CLASSIFICATION_TYPE":"U","CENTER_NAME":"EARTH","GP_ID":"230994000","ECCENTRICITY":"0.00011700","TLE_LINE1":"1 47746U 21017AA  23121.56525830  .00020954  00000-0  14215-2 0  9997","PERIOD":"95.592","RA_OF_ASC_NODE":"214.3821","EPHEMERIS_TYPE":"0","INCLINATION":"53.0525","SEMIMAJOR_AXIS":"6925.355","FILE":"3898096","MEAN_MOTION_DOT":"0.00020954","OBJECT_ID":"2021-017AA"},{"OBJECT_TYPE":"PAYLOAD","NORAD_CAT_ID":"47747","MEAN_ANOMALY":"285.0355","PERIAPSIS":"545.913","APOAPSIS":"548.366","EPOCH":"2023-05-01T13:30:00.506304","CLASSIFICATION_TYPE":"U","GP_ID":"231053023","ECCENTRICITY":"0.00017710","CENTER_NAME":"EARTH","TLE_LINE1":"1 47747U 21017AB  23121.56250586  .00013544  00000-0  92581-3 0  9991","RA_OF_ASC_NODE":"204.4014","PERIOD":"95.591","EPHEMERIS_TYPE":"0","FILE":"3898518","MEAN_MOTION_DOT":"0.00013544","SEMIMAJOR_AXIS":"6925.275","OBJECT_ID":"2021-017AB","INCLINATION":"53.0535","ELEMENT_SET_NO":"999","TLE_LINE2":"2 47747  53.0535 204.4014 0001771  75.0830 285.0355 15.06424035120670","LAUNCH_DATE":"2021-03-04","SITE":"AFETR","TIME_SYSTEM":"UTC","MEAN_ELEMENT_THEORY":"SGP4","OBJECT_NAME":"STARLINK-2161","REF_FRAME":"TEME","MEAN_MOTION":"15.06424035","COUNTRY_CODE":"US","MEAN_MOTION_DDOT":"0.0000000000000","REV_AT_EPOCH":"12067","DECAY_DATE":null,"ARG_OF_PERICENTER":"75.0830","RCS_SIZE":"LARGE","BSTAR":"0.00092581000000"},{"GP_ID":"231051780","ECCENTRICITY":"0.00011540","CENTER_NAME":"EARTH","CLASSIFICATION_TYPE":"U","APOAPSIS":"547.910","EPOCH":"2023-05-01T18:05:59.905248","OBJECT_TYPE":"PAYLOAD","MEAN_ANOMALY":"263.6541","NORAD_CAT_ID":"47748","PERIAPSIS":"546.311","FILE":"3898518","MEAN_MOTION_DOT":"0.00016906","SEMIMAJOR_AXIS":"6925.246","OBJECT_ID":"2021-017AC","INCLINATION":"53.0539","EPHEMERIS_TYPE":"0","RA_OF_ASC_NODE":"203.5387","PERIOD":"95.590","TLE_LINE1":"1 47748U 21017AC  23121.75416557  .00016906  00000-0  11501-2 0  9992","MEAN_ELEMENT_THEORY":"SGP4","OBJECT_NAME":"STARLINK-2162","SITE":"AFETR","LAUNCH_DATE":"2021-03-04","TIME_SYSTEM":"UTC","ELEMENT_SET_NO":"999","TLE_LINE2":"2 47748  53.0539 203.5387 0001154  96.4580 263.6541 15.06433607120676","DECAY_DATE":null,"BSTAR":"0.00115010000000","RCS_SIZE":"LARGE","ARG_OF_PERICENTER":"96.4580","REV_AT_EPOCH":"12067","COUNTRY_CODE":"US","MEAN_MOTION_DDOT":"0.0000000000000","REF_FRAME":"TEME","MEAN_MOTION":"15.06433607"},{"ELEMENT_SET_NO":"999","TLE_LINE2":"2 47749  53.0537 204.6633 0001472  78.5362 281.5792 15.06411462120002","SITE":"AFETR","LAUNCH_DATE":"2021-03-04","TIME_SYSTEM":"UTC","MEAN_ELEMENT_THEORY":"SGP4","OBJECT_NAME":"STARLINK-2163","REF_FRAME":"TEME","MEAN_MOTION":"15.06411462","COUNTRY_CODE":"US","MEAN_MOTION_DDOT":"0.0000000000000","REV_AT_EPOCH":"12000","DECAY_DATE":null,"RCS_SIZE":"LARGE","ARG_OF_PERICENTER":"78.5362","BSTAR":"0.00107020000000","OBJECT_TYPE":"PAYLOAD","MEAN_ANOMALY":"281.5792","NORAD_CAT_ID":"47749","PERIAPSIS":"546.159","APOAPSIS":"548.198","EPOCH":"2023-05-01T12:05:04.779456","CLASSIFICATION_TYPE":"U","GP_ID":"231027331","ECCENTRICITY":"0.00014720","CENTER_NAME":"EARTH","TLE_LINE1":"1 47749U 21017AD  23121.50352754  .00015700  00000-0  10702-2 0  9997","RA_OF_ASC_NODE":"204.6633","PERIOD":"95.591","EPHEMERIS_TYPE":"0","SEMIMAJOR_AXIS":"6925.313","FILE":"3898376","MEAN_MOTION_DOT":"0.00015700","OBJECT_ID":"2021-017AD","INCLINATION":"53.0537"},{"EPHEMERIS_TYPE":"0","INCLINATION":"53.0526","FILE":"3898518","SEMIMAJOR_AXIS":"6925.336","MEAN_MOTION_DOT":"0.00014053","OBJECT_ID":"2021-017AE","TLE_LINE1":"1 47750U 21017AE  23121.54776388  .00014053  00000-0  96035-3 0  9990","PERIOD":"95.592","RA_OF_ASC_NODE":"204.4677","CLASSIFICATION_TYPE":"U","CENTER_NAME":"EARTH","GP_ID":"231052782","ECCENTRICITY":"0.00016000","MEAN_ANOMALY":"271.9828","OBJECT_TYPE":"PAYLOAD","NORAD_CAT_ID":"47750","PERIAPSIS":"546.093","EPOCH":"2023-05-01T13:08:46.799232","APOAPSIS":"548.309","REV_AT_EPOCH":"12064","RCS_SIZE":"LARGE","DECAY_DATE":null,"ARG_OF_PERICENTER":"88.1345","BSTAR":"0.00096035000000","REF_FRAME":"TEME","MEAN_MOTION":"15.06404237","MEAN_MOTION_DDOT":"0.0000000000000","COUNTRY_CODE":"US","MEAN_ELEMENT_THEORY":"SGP4","OBJECT_NAME":"STARLINK-2164","TLE_LINE2":"2 47750  53.0526 204.4677 0001600  88.1345 271.9828 15.06404237120644","ELEMENT_SET_NO":"999","TIME_SYSTEM":"UTC","SITE":"AFETR","LAUNCH_DATE":"2021-03-04"}];
